ORBCOMM FM33            
1 25983U 99065D   25212.90931976  .00000961  00000+0  34665-3 0  9994
2 25983  45.0280 146.3216 0009829 294.6516  65.3310 14.40070470342512
ORBCOMM FM36            
1 25984U 99065E   25212.37692573  .00000737  00000+0  28713-3 0  9991
2 25984  45.0379 241.4682 0003596 211.3801 148.6833 14.38200945340785
ORBCOMM FM35            
1 25985U 99065F   25212.38838734  .00000714  00000+0  28506-3 0  9999
2 25985  45.0384 246.7991 0006199 259.7509 100.2640 14.37166034341146
ORBCOMM FM34            
1 25986U 99065G   25213.11842893  .00000540  00000+0  22711-3 0  9992
2 25986  45.0377 243.8046 0005666 231.3781 128.6560 14.37181721341408
ORBCOMM FM38            
1 33060U 08031A   25212.86411726  .00001589  00000+0  22787-3 0  9992
2 33060  48.4408 102.3124 0005124 234.8361 125.2075 14.81456334921377
ORBCOMM FM41            
1 33061U 08031B   25212.96547711  .00001648  00000+0  23762-3 0  9998
2 33061  48.4443 109.7630 0004254 220.7477 235.5822 14.81037296920876
ORBCOMM FM29            
1 33062U 08031C   25213.15968071  .00001900  00000+0  26915-3 0  9991
2 33062  48.4381 116.5922 0005923 220.3348 293.1102 14.81144076921209
ORBCOMM FM39            
1 33063U 08031D   25212.53067712  .00001636  00000+0  24353-3 0  9995
2 33063  48.4403 144.3497 0006576 189.6496 170.4294 14.79678978920362
